[{"OBJECT_NAME":"STARLINK-3590","OBJECT_ID":"2022-022R","EPOCH":"2026-03-09T00:47:28.658976","MEAN_MOTION":15.08832415,"ECCENTRICITY":0.00015489,"INCLINATION":53.2184,"RA_OF_ASC_NODE":12.0702,"ARG_OF_PERICENTER":83.0577,"MEAN_ANOMALY":277.0592,"EPHEMERIS_TYPE":0,"CLASSIFICATION_TYPE":"U","NORAD_CAT_ID":51867,"ELEMENT_SET_NO":999,"REV_AT_EPOCH":22301,"BSTAR":0.00014374013,"MEAN_MOTION_DOT":2.0e-5,"MEAN_MOTION_DDOT":0},{"OBJECT_NAME":"CICERO 3","OBJECT_ID":"2017-042AA","EPOCH":"2026-03-09T22:34:09.559488","MEAN_MOTION":15.06999011,"ECCENTRICITY":0.00123402,"INCLINATION":97.4153,"RA_OF_ASC_NODE":238.2133,"ARG_OF_PERICENTER":85.148,"MEAN_ANOMALY":275.1157,"EPHEMERIS_TYPE":0,"CLASSIFICATION_TYPE":"U","NORAD_CAT_ID":42849,"ELEMENT_SET_NO":999,"REV_AT_EPOCH":47226,"BSTAR":0.00039473976,"MEAN_MOTION_DOT":5.861e-5,"MEAN_MOTION_DDOT":0}]
